{"type": "FeatureCollection", "features": [ {"type": "Feature", "properties": {"norad_id": 66603, "name": "STARLINK-36048", "group": "last-30-days", "lat": 42.02061096676816, "lon": -29.7110583498535, "alt_km": 364.79248324373293, "timestamp": "2025-12-07T03:52:31.204667+00:00", "meta": {"OBJECT_NAME": "STARLINK-36048", "OBJECT_ID": "2025-270R", "EPOCH": "2025-12-06T14:00:01.999872", "MEAN_MOTION": 15.68502357, "ECCENTRICITY": 0.00018311, "INCLINATION": 42.9989, "RA_OF_ASC_NODE": 228.997, "ARG_OF_PERICENTER": 267.4609, "MEAN_ANOMALY": 167.5746, "EPHEMERIS_TYPE": 0, "CLASSIFICATION_TYPE": "U", "NORAD_CAT_ID": 66603, "ELEMENT_SET_NO": 999, "REV_AT_EPOCH": 331, "BSTAR": -0.018411799, "MEAN_MOTION_DOT": -0.01901577, "MEAN_MOTION_DDOT": 0}, "tle": {"line1": "1 66603U 25270R   25340.58335648 -.01901577  00000+0 -18412-1 0  9991", "line2": "2 66603  42.9989 228.9970 0001831 267.4609 167.5746 15.68502357  3313"}}, "geometry": {"type": "Point", "coordinates": [-29.7110583498535, 42.02061096676816]}}, {"type": "Feature", "properties": {"norad_id": 66604, "name": "STARLINK-35977", "group": "last-30-days", "lat": 41.65978725162517, "lon": -27.18743305391622, "alt_km": 364.7145330981093, "timestamp": "2025-12-07T03:52:31.204676+00:00", "meta": {"OBJECT_NAME": "STARLINK-35977", "OBJECT_ID": "2025-270S", "EPOCH": "2025-12-06T14:00:01.999872", "MEAN_MOTION": 15.68503149, "ECCENTRICITY": 0.00017183, "INCLINATION": 42.999, "RA_OF_ASC_NODE": 228.9923, "ARG_OF_PERICENTER": 263.0687, "MEAN_ANOMALY": 173.881, "EPHEMERIS_TYPE": 0, "CLASSIFICATION_TYPE": "U", "NORAD_CAT_ID": 66604, "ELEMENT_SET_NO": 999, "REV_AT_EPOCH": 341, "BSTAR": -0.018395355, "MEAN_MOTION_DOT": -0.01900041, "MEAN_MOTION_DDOT": 0}, "tle": {"line1": "1 66604U 25270S   25340.58335648 -.01900041  00000+0 -18395-1 0  9997", "line2": "2 66604  42.9990 228.9923 0001718 263.0687 173.8810 15.68503149  3419"}}, "geometry": {"type": "Point", "coordinates": [-27.18743305391622, 41.65978725162517]}}, {"type": "Feature", "properties": {"norad_id": 66605, "name": "STARLINK-36052", "group": "last-30-days", "lat": 41.24384371474043, "lon": -24.693074292748243, "alt_km": 364.67647274919, "timestamp": "2025-12-07T03:52:31.204689+00:00", "meta": {"OBJECT_NAME": "STARLINK-36052", "OBJECT_ID": "2025-270T", "EPOCH": "2025-12-06T14:00:01.999872", "MEAN_MOTION": 15.68501771, "ECCENTRICITY": 0.0001604, "INCLINATION": 42.9989, "RA_OF_ASC_NODE": 228.9877, "ARG_OF_PERICENTER": 261.4434, "MEAN_ANOMALY": 177.4278, "EPHEMERIS_TYPE": 0, "CLASSIFICATION_TYPE": "U", "NORAD_CAT_ID": 66605, "ELEMENT_SET_NO": 999, "REV_AT_EPOCH": 341, "BSTAR": -0.018407858, "MEAN_MOTION_DOT": -0.01901004, "MEAN_MOTION_DDOT": 0}, "tle": {"line1": "1 66605U 25270T   25340.58335648 -.01901004  00000+0 -18408-1 0  9993", "line2": "2 66605  42.9989 228.9877 0001604 261.4434 177.4278 15.68501771  3419"}}, "geometry": {"type": "Point", "coordinates": [-24.693074292748243, 41.24384371474043]}}, {"type": "Feature", "properties": {"norad_id": 66606, "name": "STARLINK-36063", "group": "last-30-days", "lat": 40.25365707589258, "lon": -19.807361298647514, "alt_km": 364.83694985328293, "timestamp": "2025-12-07T03:52:31.204699+00:00", "meta": {"OBJECT_NAME": "STARLINK-36063", "OBJECT_ID": "2025-270U", "EPOCH": "2025-12-06T14:00:01.999872", "MEAN_MOTION": 15.68501825, "ECCENTRICITY": 0.0001669, "INCLINATION": 42.999, "RA_OF_ASC_NODE": 228.978, "ARG_OF_PERICENTER": 262.2847, "MEAN_ANOMALY": 180.4173, "EPHEMERIS_TYPE": 0, "CLASSIFICATION_TYPE": "U", "NORAD_CAT_ID": 66606, "ELEMENT_SET_NO": 999, "REV_AT_EPOCH": 341, "BSTAR": -0.018382528, "MEAN_MOTION_DOT": -0.01898736, "MEAN_MOTION_DDOT": 0}, "tle": {"line1": "1 66606U 25270U   25340.58335648 -.01898736  00000+0 -18383-1 0  9993", "line2": "2 66606  42.9990 228.9780 0001669 262.2847 180.4173 15.68501825  3411"}}, "geometry": {"type": "Point", "coordinates": [-19.807361298647514, 40.25365707589258]}}, {"type": "Feature", "properties": {"norad_id": 66607, "name": "STARLINK-35993", "group": "last-30-days", "lat": 40.77482785081847, "lon": -22.232438918865913, "alt_km": 364.72895166727085, "timestamp": "2025-12-07T03:52:31.204709+00:00", "meta": {"OBJECT_NAME": "STARLINK-35993", "OBJECT_ID": "2025-270V", "EPOCH": "2025-12-06T14:00:01.999872", "MEAN_MOTION": 15.68500745, "ECCENTRICITY": 0.00016208, "INCLINATION": 42.999, "RA_OF_ASC_NODE": 228.9832, "ARG_OF_PERICENTER": 260.6436, "MEAN_ANOMALY": 180.1446, "EPHEMERIS_TYPE": 0, "CLASSIFICATION_TYPE": "U", "NORAD_CAT_ID": 66607, "ELEMENT_SET_NO": 999, "REV_AT_EPOCH": 331, "BSTAR": -0.01839342, "MEAN_MOTION_DOT": -0.01899622, "MEAN_MOTION_DDOT": 0}, "tle": {"line1": "1 66607U 25270V   25340.58335648 -.01899622  00000+0 -18393-1 0  9990", "line2": "2 66607  42.9990 228.9832 0001620 260.6436 180.1446 15.68500745  3312"}}, "geometry": {"type": "Point", "coordinates": [-22.232438918865913, 40.77482785081847]}}, {"type": "Feature", "properties": {"norad_id": 66608, "name": "STARLINK-36036", "group": "last-30-days", "lat": 39.68290411075511, "lon": -17.421781854646657, "alt_km": 364.8786564981656, "timestamp": "2025-12-07T03:52:31.204721+00:00", "meta": {"OBJECT_NAME": "STARLINK-36036", "OBJECT_ID": "2025-270W", "EPOCH": "2025-12-06T14:00:01.999872", "MEAN_MOTION": 15.68501311, "ECCENTRICITY": 0.00016622, "INCLINATION": 42.9991, "RA_OF_ASC_NODE": 228.9736, "ARG_OF_PERICENTER": 260.9372, "MEAN_ANOMALY": 183.6815, "EPHEMERIS_TYPE": 0, "CLASSIFICATION_TYPE": "U", "NORAD_CAT_ID": 66608, "ELEMENT_SET_NO": 999, "REV_AT_EPOCH": 325, "BSTAR": -0.018371244, "MEAN_MOTION_DOT": -0.01897662, "MEAN_MOTION_DDOT": 0}, "tle": {"line1": "1 66608U 25270W   25340.58335648 -.01897662  00000+0 -18371-1 0  9999", "line2": "2 66608  42.9991 228.9736 0001662 260.9372 183.6815 15.68501311  3256"}}, "geometry": {"type": "Point", "coordinates": [-17.421781854646657, 39.68290411075511]}}, {"type": "Feature", "properties": {"norad_id": 66609, "name": "STARLINK-36034", "group": "last-30-days", "lat": 39.06389172470219, "lon": -15.077477632902292, "alt_km": 364.92239665214584, "timestamp": "2025-12-07T03:52:31.204731+00:00", "meta": {"OBJECT_NAME": "STARLINK-36034", "OBJECT_ID": "2025-270X", "EPOCH": "2025-12-06T14:00:01.999872", "MEAN_MOTION": 15.68500567, "ECCENTRICITY": 0.00015734, "INCLINATION": 42.999, "RA_OF_ASC_NODE": 228.9691, "ARG_OF_PERICENTER": 261.4725, "MEAN_ANOMALY": 185.0694, "EPHEMERIS_TYPE": 0, "CLASSIFICATION_TYPE": "U", "NORAD_CAT_ID": 66609, "ELEMENT_SET_NO": 999, "REV_AT_EPOCH": 325, "BSTAR": -0.018417291, "MEAN_MOTION_DOT": -0.0190176, "MEAN_MOTION_DDOT": 0}, "tle": {"line1": "1 66609U 25270X   25340.58335648 -.01901760  00000+0 -18417-1 0  9996", "line2": "2 66609  42.9990 228.9691 0001573 261.4725 185.0694 15.68500567  3258"}}, "geometry": {"type": "Point", "coordinates": [-15.077477632902292, 39.06389172470219]}}, {"type": "Feature", "properties": {"norad_id": 66610, "name": "STARLINK-35680", "group": "last-30-days", "lat": 38.39819691197927, "lon": -12.774645862289038, "alt_km": 365.0249445592772, "timestamp": "2025-12-07T03:52:31.204741+00:00", "meta": {"OBJECT_NAME": "STARLINK-35680", "OBJECT_ID": "2025-270Y", "EPOCH": "2025-12-06T14:00:01.999872", "MEAN_MOTION": 15.68505716, "ECCENTRICITY": 0.00015908, "INCLINATION": 42.999, "RA_OF_ASC_NODE": 228.9638, "ARG_OF_PERICENTER": 262.3443, "MEAN_ANOMALY": 186.1087, "EPHEMERIS_TYPE": 0, "CLASSIFICATION_TYPE": "U", "NORAD_CAT_ID": 66610, "ELEMENT_SET_NO": 999, "REV_AT_EPOCH": 352, "BSTAR": -0.018445558, "MEAN_MOTION_DOT": -0.01904722, "MEAN_MOTION_DDOT": 0}, "tle": {"line1": "1 66610U 25270Y   25340.58335648 -.01904722  00000+0 -18446-1 0  9991", "line2": "2 66610  42.9990 228.9638 0001590 262.3443 186.1087 15.68505716  3526"}}, "geometry": {"type": "Point", "coordinates": [-12.774645862289038, 38.39819691197927]}}, {"type": "Feature", "properties": {"norad_id": 66611, "name": "STARLINK-35583", "group": "last-30-days", "lat": 37.687818885606085, "lon": -10.514183004444709, "alt_km": 365.0876701643192, "timestamp": "2025-12-07T03:52:31.204753+00:00", "meta": {"OBJECT_NAME": "STARLINK-35583", "OBJECT_ID": "2025-270Z", "EPOCH": "2025-12-06T14:00:01.999872", "MEAN_MOTION": 15.68502741, "ECCENTRICITY": 0.00015409, "INCLINATION": 42.999, "RA_OF_ASC_NODE": 228.9588, "ARG_OF_PERICENTER": 262.9865, "MEAN_ANOMALY": 187.386, "EPHEMERIS_TYPE": 0, "CLASSIFICATION_TYPE": "U", "NORAD_CAT_ID": 66611, "ELEMENT_SET_NO": 999, "REV_AT_EPOCH": 352, "BSTAR": -0.018412509, "MEAN_MOTION_DOT": -0.01901451, "MEAN_MOTION_DDOT": 0}, "tle": {"line1": "1 66611U 25270Z   25340.58335648 -.01901451  00000+0 -18413-1 0  9992", "line2": "2 66611  42.9990 228.9588 0001540 262.9865 187.3860 15.68502741  3527"}}, "geometry": {"type": "Point", "coordinates": [-10.514183004444709, 37.687818885606085]}}, {"type": "Feature", "properties": {"norad_id": 66612, "name": "STARLINK-36039", "group": "last-30-days", "lat": 36.93625303824465, "lon": -8.30207365062499, "alt_km": 365.2218524361151, "timestamp": "2025-12-07T03:52:31.204766+00:00", "meta": {"OBJECT_NAME": "STARLINK-36039", "OBJECT_ID": "2025-270AA", "EPOCH": "2025-12-06T14:00:01.999872", "MEAN_MOTION": 15.68504875, "ECCENTRICITY": 0.00015982, "INCLINATION": 42.9989, "RA_OF_ASC_NODE": 228.9537, "ARG_OF_PERICENTER": 262.7217, "MEAN_ANOMALY": 189.5671, "EPHEMERIS_TYPE": 0, "CLASSIFICATION_TYPE": "U", "NORAD_CAT_ID": 66612, "ELEMENT_SET_NO": 999, "REV_AT_EPOCH": 341, "BSTAR": -0.018450769, "MEAN_MOTION_DOT": -0.01905146, "MEAN_MOTION_DDOT": 0}, "tle": {"line1": "1 66612U 25270AA  25340.58335648 -.01905146  00000+0 -18451-1 0  9990", "line2": "2 66612  42.9989 228.9537 0001598 262.7217 189.5671 15.68504875  3414"}}, "geometry": {"type": "Point", "coordinates": [-8.30207365062499, 36.93625303824465]}}]}